IRIDIUM 136             
1 42962U 17061H   24154.47460482  .00000134  00000+0  40872-4 0  9991
2 42962  86.3962 336.4733 0001945  81.6125 278.5291 14.34216020348091
